$$SOE
2461302.500000000, A.D. 2026-Sep-19 00:00:00.0000, 3.701048018267555E+08, 2.046377745311784E+07, -1.729136277390066E+06,
2461309.500000000, A.D. 2026-Sep-26 00:00:00.0000, 3.705490371884863E+08, 3.239532857166061E+07, 1.667628488586005E+05,
2461316.500000000, A.D. 2026-Oct-03 00:00:00.0000, 3.706437735193334E+08, 4.429631562004362E+07, 2.062507528828798E+06,
2461323.500000000, A.D. 2026-Oct-10 00:00:00.0000, 3.703926274061962E+08, 5.615595450544143E+07, 3.956330289132603E+06,
2461330.500000000, A.D. 2026-Oct-17 00:00:00.0000, 3.697995797708203E+08, 6.796374366499643E+07, 5.846503782010067E+06,
2461337.500000000, A.D. 2026-Oct-24 00:00:00.0000, 3.688689540206813E+08, 7.970947506097968E+07, 7.731342839622792E+06,
2461344.500000000, A.D. 2026-Oct-31 00:00:00.0000, 3.676053942419903E+08, 9.138324338520169E+07, 9.609206245299384E+06,
2461351.500000000, A.D. 2026-Nov-07 00:00:00.0000, 3.660138439018130E+08, 1.029754536076633E+08, 1.147849820421873E+07,
2461358.500000000, A.D. 2026-Nov-14 00:00:00.0000, 3.640995253769994E+08, 1.144768278214494E+08, 1.333766957688207E+07,
2461365.500000000, A.D. 2026-Nov-21 00:00:00.0000, 3.618679186023404E+08, 1.258784121374190E+08, 1.518521910832547E+07,
2461372.500000000, A.D. 2026-Nov-28 00:00:00.0000, 3.593247379380633E+08, 1.371715806970102E+08, 1.701969451134264E+07,
2461379.500000000, A.D. 2026-Dec-05 00:00:00.0000, 3.564759109596427E+08, 1.483480362216206E+08, 1.883969303023967E+07,
2461386.500000000, A.D. 2026-Dec-12 00:00:00.0000, 3.533275593999335E+08, 1.593998102887943E+08, 2.064386173625861E+07,
2461393.500000000, A.D. 2026-Dec-19 00:00:00.0000, 3.498859804128203E+08, 1.703192634262140E+08, 2.243089774103924E+07,
2461400.500000000, A.D. 2026-Dec-26 00:00:00.0000, 3.461576280652639E+08, 1.810990842410397E+08, 2.419954828329966E+07,
2461407.500000000, A.D. 2027-Jan-02 00:00:00.0000, 3.421490953740956E+08, 1.917322874786190E+08, 2.594861066088408E+07,
2461414.500000000, A.D. 2027-Jan-09 00:00:00.0000, 3.378670970362453E+08, 2.022122111144628E+08, 2.767693201203972E+07,
2461421.500000000, A.D. 2027-Jan-16 00:00:00.0000, 3.333184529112039E+08, 2.125325125702780E+08, 2.938340895614925E+07,
2461428.500000000, A.D. 2027-Jan-23 00:00:00.0000, 3.285100723176799E+08, 2.226871640942599E+08, 3.106698709894928E+07,
2461435.500000000, A.D. 2027-Jan-30 00:00:00.0000, 3.234489393418221E+08, 2.326704473351499E+08, 3.272666039329311E+07,
2461442.500000000, A.D. 2027-Feb-06 00:00:00.0000, 3.181420995859833E+08, 2.424769475234693E+08, 3.436147035591172E+07,
2461449.500000000, A.D. 2027-Feb-13 00:00:00.0000, 3.125966478944311E+08, 2.521015485471880E+08, 3.597050529255733E+07,
2461456.500000000, A.D. 2027-Feb-20 00:00:00.0000, 3.068197146809149E+08, 2.615394281970353E+08, 3.755289969385777E+07,
2461463.500000000, A.D. 2027-Feb-27 00:00:00.0000, 3.008184522447858E+08, 2.707860504348755E+08, 3.910783342215204E+07,
2461470.500000000, A.D. 2027-Mar-06 00:00:00.0000, 2.946000240834018E+08, 2.798371566661722E+08, 4.063453057913461E+07,
2461477.500000000, A.D. 2027-Mar-13 00:00:00.0000, 2.881715955819552E+08, 2.886887581183782E+08, 4.213225837674592E+07,
2461484.500000000, A.D. 2027-Mar-20 00:00:00.0000, 2.815403249300078E+08, 2.973371285413075E+08, 4.360032605475940E+07,
2461491.500000000, A.D. 2027-Mar-27 00:00:00.0000, 2.747133544446744E+08, 3.057787967279216E+08, 4.503808378939754E+07,
2461498.500000000, A.D. 2027-Apr-03 00:00:00.0000, 2.676978024797486E+08, 3.140105388510751E+08, 4.644492157759629E+07,
2461505.500000000, A.D. 2027-Apr-10 00:00:00.0000, 2.605007559568785E+08, 3.220293706786773E+08, 4.782026809973739E+07,
2461512.500000000, A.D. 2027-Apr-17 00:00:00.0000, 2.531292635145294E+08, 3.298325396887397E+08, 4.916358956367038E+07,
2461519.500000000, A.D. 2027-Apr-24 00:00:00.0000, 2.455903293267871E+08, 3.374175170546556E+08, 5.047438852321786E+07,
2461526.500000000, A.D. 2027-May-01 00:00:00.0000, 2.378909078642707E+08, 3.447819895582352E+08, 5.175220265112182E+07,
2461533.500000000, A.D. 2027-May-08 00:00:00.0000, 2.300378998779489E+08, 3.519238522054172E+08, 5.299660350409549E+07,
2461540.500000000, A.D. 2027-May-15 00:00:00.0000, 2.220381480816563E+08, 3.588412025190279E+08, 5.420719549876949E+07,
2461547.500000000, A.D. 2027-May-22 00:00:00.0000, 2.138984309385936E+08, 3.655323339355642E+08, 5.538361503338097E+07,
2461554.500000000, A.D. 2027-May-29 00:00:00.0000, 2.056254578804091E+08, 3.719957268595604E+08, 5.652552933175093E+07,
2461561.500000000, A.D. 2027-Jun-05 00:00:00.0000, 1.972258668204098E+08, 3.782300405240284E+08, 5.763263518768558E+07,
2461568.500000000, A.D. 2027-Jun-12 00:00:00.0000, 1.887062219278148E+08, 3.842341061000286E+08, 5.870465783140735E+07,
2461575.500000000, A.D. 2027-Jun-19 00:00:00.0000, 1.800730113065585E+08, 3.900069201304190E+08, 5.974134987405482E+07,
2461582.500000000, A.D. 2027-Jun-26 00:00:00.0000, 1.713326448339282E+08, 3.955476380344695E+08, 6.074249028494731E+07,
2461589.500000000, A.D. 2027-Jul-03 00:00:00.0000, 1.624914522673206E+08, 4.008555676970273E+08, 6.170788339122820E+07,
2461596.500000000, A.D. 2027-Jul-10 00:00:00.0000, 1.535556816317416E+08, 4.059301631547385E+08, 6.263735789790565E+07,
2461603.500000000, A.D. 2027-Jul-17 00:00:00.0000, 1.445314979002111E+08, 4.107710183441716E+08, 6.353076592262068E+07,
2461610.500000000, A.D. 2027-Jul-24 00:00:00.0000, 1.354249821006185E+08, 4.153778608535587E+08, 6.438798202701274E+07,
2461617.500000000, A.D. 2027-Jul-31 00:00:00.0000, 1.262421312401408E+08, 4.197505459187530E+08, 6.520890222797000E+07,
2461624.500000000, A.D. 2027-Aug-07 00:00:00.0000, 1.169888588295106E+08, 4.238890518192285E+08, 6.599344310288161E+07,
2461631.500000000, A.D. 2027-Aug-14 00:00:00.0000, 1.076709936906706E+08, 4.277934764201469E+08, 6.674154117955178E+07,
2461638.500000000, A.D. 2027-Aug-21 00:00:00.0000, 9.829427764791866E+07, 4.314640314929768E+08, 6.745315227879494E+07,
2461645.500000000, A.D. 2027-Aug-28 00:00:00.0000, 8.886436551680207E+07, 4.349010360186758E+08, 6.812825059390283E+07,
2461652.500000000, A.D. 2027-Sep-04 00:00:00.0000, 7.938682619639170E+07, 4.381049109745715E+08, 6.876682781960309E+07,
2461659.500000000, A.D. 2027-Sep-11 00:00:00.0000, 6.986714345551257E+07, 4.410761749392041E+08, 6.936889240346378E+07,
2461666.500000000, A.D. 2027-Sep-18 00:00:00.0000, 6.031071653187811E+07, 4.438154398610475E+08, 6.993446885359263E+07,
2461673.500000000, A.D. 2027-Sep-25 00:00:00.0000, 5.072286075987193E+07, 4.463234069101363E+08, 7.046359707461339E+07,
2461680.500000000, A.D. 2027-Oct-02 00:00:00.0000, 4.110880828997190E+07, 4.486008624367625E+08, 7.095633172657734E+07,
2461687.500000000, A.D. 2027-Oct-09 00:00:00.0000, 3.147370891111625E+07, 4.506486740291413E+08, 7.141274160364115E+07,
2461694.500000000, A.D. 2027-Oct-16 00:00:00.0000, 2.182263102878700E+07, 4.524677866113384E+08, 7.183290902147621E+07,
2461701.500000000, A.D. 2027-Oct-23 00:00:00.0000, 1.216056304890082E+07, 4.540592185718537E+08, 7.221692918839434E+07,
2461708.500000000, A.D. 2027-Oct-30 00:00:00.0000, 2.492415533021160E+06, 4.554240585296960E+08, 7.256490957514942E+07,
2461715.500000000, A.D. 2027-Nov-06 00:00:00.0000, -7.176977046273386E+06, 4.565634638630952E+08, 7.287696948185167E+07,
2461722.500000000, A.D. 2027-Nov-13 00:00:00.0000, -1.684285694159879E+07, 4.574786589190316E+08, 7.315323981333295E+07,
2461729.500000000, A.D. 2027-Nov-20 00:00:00.0000, -2.650054326518569E+07, 4.581709307108362E+08, 7.339386261715588E+07,
2461736.500000000, A.D. 2027-Nov-27 00:00:00.0000, -3.614543001203115E+07, 4.586416250660649E+08, 7.359899047823724E+07,
2461743.500000000, A.D. 2027-Dec-04 00:00:00.0000, -4.577298400018242E+07, 4.588921441357309E+08, 7.376878603001657E+07,
2461750.500000000, A.D. 2027-Dec-11 00:00:00.0000, -5.537874328354511E+07, 4.589239442956601E+08, 7.390342155305254E+07,
2461757.500000000, A.D. 2027-Dec-18 00:00:00.0000, -6.495831576733301E+07, 4.587385340957513E+08, 7.400307860737228E+07,
2461764.500000000, A.D. 2027-Dec-25 00:00:00.0000, -7.450737787885843E+07, 4.583374722501967E+08, 7.406794768375099E+07,
2461771.500000000, A.D. 2028-Jan-01 00:00:00.0000, -8.402167325657262E+07, 4.577223656784495E+08, 7.409822787057081E+07,
$$EOE